CCSDS_OMM_VERS,COMMENT,CREATION_DATE,ORIGINATOR,OBJECT_NAME,OBJECT_ID,CENTER_NAME,REF_FRAME,TIME_SYSTEM,MEAN_ELEMENT_THEORY,EPOCH,MEAN_MOTION,ECCENTRICITY,INCLINATION,RA_OF_ASC_NODE,ARG_OF_PERICENTER,MEAN_ANOMALY,EPHEMERIS_TYPE,CLASSIFICATION_TYPE,NORAD_CAT_ID,ELEMENT_SET_NO,REV_AT_EPOCH,BSTAR,MEAN_MOTION_DOT,MEAN_MOTION_DDOT,SEMIMAJOR_AXIS,PERIOD,APOAPSIS,PERIAPSIS,OBJECT_TYPE,RCS_SIZE,COUNTRY_CODE,LAUNCH_DATE,SITE,DECAY_DATE,FILE,GP_ID,TLE_LINE0,TLE_LINE1,TLE_LINE2
"2.0","GENERATED VIA SPACE-TRACK.ORG API","2020-11-03T21:31:39","18 SPCS","STARLINK-1694","2020-070N","EARTH","TEME","UTC","SGP4","2020-11-03T06:00:00.999648","15.62431924","0.00009060","52.9998","305.6477","75.3012","216.1060","0","U","46544","999","187","0.00021968000000","0.00019380","0.0000000000000","6758.771","92.164","381.248","380.024","PAYLOAD","","US","2020-10-06","AFETR","","2870034","164795337","0 STARLINK-1694","1 46544U 20070N   20308.25001157 +.00019380 +00000-0 +21968-3 0  9996","2 46544 052.9998 305.6477 0000906 075.3012 216.1060 15.62431924001871"
"2.0","GENERATED VIA SPACE-TRACK.ORG API","2020-11-03T14:36:10","18 SPCS","STARLINK-1694","2020-070N","EARTH","TEME","UTC","SGP4","2020-11-03T12:00:00.999648","15.62699262","0.00011920","53.0002","304.4203","101.5359","156.8816","0","U","46544","999","522","-0.00004541000000","-0.00004681","0.0000000000000","6758.000","92.148","380.671","379.060","PAYLOAD","","US","2020-10-06","AFETR","","2869929","164772955","0 STARLINK-1694","1 46544U 20070N   20308.50001157 -.00004681  00000-0 -45410-4 0  9993","2 46544  53.0002 304.4203 0001192 101.5359 156.8816 15.62699262  5220"
"2.0","GENERATED VIA SPACE-TRACK.ORG API","2020-11-03T22:46:10","18 SPCS","STARLINK-1694","2020-070N","EARTH","TEME","UTC","SGP4","2020-11-03T20:00:01.000224","15.62458586","0.00012720","52.9991","302.7903","82.7921","252.1931","0","U","46544","999","527","0.00449930000000","0.00429043","0.0000000000000","6758.694","92.162","381.419","379.700","PAYLOAD","","US","2020-10-06","AFETR","","2870331","164802921","0 STARLINK-1694","1 46544U 20070N   20308.83334491  .00429043  00000-0  44993-2 0  9993","2 46544  52.9991 302.7903 0001272  82.7921 252.1931 15.62458586  5272"
"2.0","GENERATED VIA SPACE-TRACK.ORG API","2020-11-04T04:56:24","18 SPCS","STARLINK-1694","2020-070N","EARTH","TEME","UTC","SGP4","2020-11-03T22:00:08.999712","15.62575920","0.00013410","52.9989","302.3816","84.5417","359.9748","0","U","46544","999","182","0.00304000000000","0.00285867","0.0000000000000","6758.356","92.155","381.127","379.315","PAYLOAD","","US","2020-10-06","AFETR","","2870484","164823457","0 STARLINK-1694","1 46544U 20070N   20308.91677083 +.00285867 +00000-0 +30400-2 0  9991","2 46544 052.9989 302.3816 0001341 084.5417 359.9748 15.62575920001826"
"2.0","GENERATED VIA SPACE-TRACK.ORG API","2020-11-04T06:36:10","18 SPCS","STARLINK-1694","2020-070N","EARTH","TEME","UTC","SGP4","2020-11-04T04:00:00.999936","15.62785306","0.00011570","52.9997","301.1590","83.5220","327.8053","0","U","46544","999","532","-0.00042955000000","-0.00039723","0.0000000000000","6757.752","92.143","380.399","378.835","PAYLOAD","","US","2020-10-06","AFETR","","2870735","164830137","0 STARLINK-1694","1 46544U 20070N   20309.16667824 -.00039723  00000-0 -42955-3 0  9990","2 46544  52.9997 301.1590 0001157  83.5220 327.8053 15.62785306  5320"
"2.0","GENERATED VIA SPACE-TRACK.ORG API","2020-11-04T20:11:21","18 SPCS","STARLINK-1694","2020-070N","EARTH","TEME","UTC","SGP4","2020-11-04T14:00:01.000224","15.62737301","0.00008360","52.9992","299.1188","77.4645","159.3951","0","U","46544","999","181","0.00000473400000","-0.00000100","0.0000000000000","6757.891","92.146","380.321","379.191","PAYLOAD","","US","2020-10-06","AFETR","","2871064","164858147","0 STARLINK-1694","1 46544U 20070N   20309.58334491 -.00000100 +00000-0 +47340-5 0  9998","2 46544 052.9992 299.1188 0000836 077.4645 159.3951 15.62737301001817"
"2.0","GENERATED VIA SPACE-TRACK.ORG API","2020-11-04T22:46:11","18 SPCS","STARLINK-1694","2020-070N","EARTH","TEME","UTC","SGP4","2020-11-04T22:00:00.999936","15.62726704","0.00008120","52.9997","297.4849","96.8963","216.3440","0","U","46544","999","544","0.00095515000000","0.00087783","0.0000000000000","6757.921","92.146","380.335","379.237","PAYLOAD","","US","2020-10-06","AFETR","","2871315","164865130","0 STARLINK-1694","1 46544U 20070N   20309.91667824  .00087783  00000-0  95515-3 0  9990","2 46544  52.9997 297.4849 0000812  96.8963 216.3440 15.62726704  5444"
"2.0","GENERATED VIA SPACE-TRACK.ORG API","2020-11-05T06:56:10","18 SPCS","STARLINK-1694","2020-070N","EARTH","TEME","UTC","SGP4","2020-11-05T06:00:04.000320","15.62798640","0.00010220","52.9999","295.8545","82.7573","307.0833","0","U","46544","999","549","-0.00094093000000","-0.00085935","0.0000000000000","6757.714","92.142","380.269","378.888","PAYLOAD","","US","2020-10-06","AFETR","","2871673","164893720","0 STARLINK-1694","1 46544U 20070N   20310.25004630 -.00085935  00000-0 -94093-3 0  9998","2 46544  52.9999 295.8545 0001022  82.7573 307.0833 15.62798640  5493"
"2.0","GENERATED VIA SPACE-TRACK.ORG API","2020-11-05T20:38:03","18 SPCS","STARLINK-1694","2020-070N","EARTH","TEME","UTC","SGP4","2020-11-05T14:00:09.000000","15.62757725","0.00010280","53.0000","294.2214","82.0449","24.5290","0","U","46544","999","177","0.00002750800000","0.00001986","0.0000000000000","6757.832","92.144","380.391","379.002","PAYLOAD","","US","2020-10-06","AFETR","","2872017","164921941","0 STARLINK-1694","1 46544U 20070N   20310.58343750 +.00001986 +00000-0 +27508-4 0  9993","2 46544 053.0000 294.2214 0001028 082.0449 024.5290 15.62757725001779"
"2.0","GENERATED VIA SPACE-TRACK.ORG API","2020-11-05T21:56:10","18 SPCS","STARLINK-1694","2020-070N","EARTH","TEME","UTC","SGP4","2020-11-05T20:00:01.000224","15.62758169","0.00008840","53.0001","292.9964","93.4244","339.9374","0","U","46544","999","558","-0.00034408000000","-0.00031921","0.0000000000000","6757.830","92.144","380.293","379.098","PAYLOAD","","US","2020-10-06","AFETR","","2872334","164930392","0 STARLINK-1694","1 46544U 20070N   20310.83334491 -.00031921  00000-0 -34408-3 0  9993","2 46544  53.0001 292.9964 0000884  93.4244 339.9374 15.62758169  5587"
"2.0","GENERATED VIA SPACE-TRACK.ORG API","2020-11-06T01:41:02","18 SPCS","STARLINK-1694","2020-070N","EARTH","TEME","UTC","SGP4","2020-11-05T22:00:01.999584","15.62753963","0.00008800","53.0001","292.5882","95.4299","87.1037","0","U","46544","999","177","-0.00002621600000","-0.00002933","0.0000000000000","6757.843","92.145","380.302","379.113","PAYLOAD","","US","2020-10-06","AFETR","","2872424","164952927","0 STARLINK-1694","1 46544U 20070N   20310.91668981 -.00002933 +00000-0 -26216-4 0  9996","2 46544 053.0001 292.5882 0000880 095.4299 087.1037 15.62753963001772"
"2.0","GENERATED VIA SPACE-TRACK.ORG API","2020-11-06T06:56:10","18 SPCS","STARLINK-1694","2020-070N","EARTH","TEME","UTC","SGP4","2020-11-06T04:00:00.999936","15.62771487","0.00009320","52.9999","291.3657","83.6314","66.1323","0","U","46544","999","563","-0.00052102000000","-0.00047993","0.0000000000000","6757.792","92.143","380.287","379.027","PAYLOAD","","US","2020-10-06","AFETR","","2872759","164960842","0 STARLINK-1694","1 46544U 20070N   20311.16667824 -.00047993  00000-0 -52102-3 0  9996","2 46544  52.9999 291.3657 0000932  83.6314  66.1323 15.62771487  5633"
"2.0","GENERATED VIA SPACE-TRACK.ORG API","2020-11-06T18:35:33","18 SPCS","STARLINK-1694","2020-070N","EARTH","TEME","UTC","SGP4","2020-11-06T14:00:01.999872","15.62738099","0.00010420","52.9995","289.3251","85.9467","249.3818","0","U","46544","999","176","0.00022404000000","0.00020018","0.0000000000000","6757.888","92.145","380.457","379.049","PAYLOAD","","US","2020-10-06","AFETR","","2873392","164991072","0 STARLINK-1694","1 46544U 20070N   20311.58335648 +.00020018 +00000-0 +22404-3 0  9997","2 46544 052.9995 289.3251 0001042 085.9467 249.3818 15.62738099001769"
"2.0","GENERATED VIA SPACE-TRACK.ORG API","2020-11-06T22:46:10","18 SPCS","STARLINK-1694","2020-070N","EARTH","TEME","UTC","SGP4","2020-11-06T20:00:01.999872","15.62725854","0.00010530","52.9994","288.0998","98.6577","203.9679","0","U","46544","999","574","0.00114150000000","0.00105238","0.0000000000000","6757.924","92.146","380.500","379.077","PAYLOAD","","US","2020-10-06","AFETR","","2873827","165019265","0 STARLINK-1694","1 46544U 20070N   20311.83335648  .00105238  00000-0  11415-2 0  9992","2 46544  52.9994 288.0998 0001053  98.6577 203.9679 15.62725854  5745"
"2.0","GENERATED VIA SPACE-TRACK.ORG API","2020-11-07T02:25:42","18 SPCS","STARLINK-1694","2020-070N","EARTH","TEME","UTC","SGP4","2020-11-06T22:00:03.999744","15.62751266","0.00010830","52.9997","287.6916","100.2665","311.5811","0","U","46544","999","177","0.00094776000000","0.00087177","0.0000000000000","6757.850","92.145","380.447","378.983","PAYLOAD","","US","2020-10-06","AFETR","","2873869","165040077","0 STARLINK-1694","1 46544U 20070N   20311.91671296 +.00087177 +00000-0 +94776-3 0  9996","2 46544 052.9997 287.6916 0001083 100.2665 311.5811 15.62751266001773"
"2.0","GENERATED VIA SPACE-TRACK.ORG API","2020-11-07T06:56:09","18 SPCS","STARLINK-1694","2020-070N","EARTH","TEME","UTC","SGP4","2020-11-07T04:00:00.999936","15.62829628","0.00009100","52.9996","286.4693","91.8325","287.1347","0","U","46544","999","579","-0.00098644000000","-0.00090127","0.0000000000000","6757.624","92.140","380.104","378.874","PAYLOAD","","US","2020-10-06","AFETR","","2874235","165070002","0 STARLINK-1694","1 46544U 20070N   20312.16667824 -.00090127  00000-0 -98644-3 0  9995","2 46544  52.9996 286.4693 0000910  91.8325 287.1347 15.62829628  5793"
